start=new Date('2022-06-17T00:00:00.000Z').valueOf();
sats=[{"MEAN_MOTION":"15.06395801","BSTAR":"0.00001154100000","PERIOD":"95.592","EPOCH":"2022-06-15T23:38:31.430400","FILE":"3497002","APOAPSIS":"548.497","COUNTRY_CODE":"US","MEAN_ANOMALY":"297.5049","ARG_OF_PERICENTER":"62.6127","MEAN_ELEMENT_THEORY":"SGP4","NORAD_CAT_ID":"48126","EPHEMERIS_TYPE":"0","OBJECT_TYPE":"PAYLOAD","REF_FRAME":"TEME","GP_ID":"206287460","PERIAPSIS":"545.956","OBJECT_ID":"2021-027AL","ECCENTRICITY":"0.00018350","MEAN_MOTION_DDOT":"0.0000000000000","TLE_LINE2":"2 48126  53.0551 149.0315 0001835  62.6127 297.5049 15.06395801 67317","SITE":"AFETR","RCS_SIZE":"LARGE","REV_AT_EPOCH":"6731","MEAN_MOTION_DOT":"-0.00000110","RA_OF_ASC_NODE":"149.0315","INCLINATION":"53.0551","CENTER_NAME":"EARTH","SEMIMAJOR_AXIS":"6925.361","CLASSIFICATION_TYPE":"U","OBJECT_NAME":"STARLINK-2467","TLE_LINE1":"1 48126U 21027AL  22166.98508600 -.00000110  00000-0  11541-4 0  9995","LAUNCH_DATE":"2021-04-07","TIME_SYSTEM":"UTC","ELEMENT_SET_NO":"999","DECAY_DATE":null},{"NORAD_CAT_ID":"48127","EPHEMERIS_TYPE":"0","MEAN_ANOMALY":"310.5529","ARG_OF_PERICENTER":"49.5660","MEAN_ELEMENT_THEORY":"SGP4","GP_ID":"206236954","PERIAPSIS":"545.655","OBJECT_ID":"2021-027AM","OBJECT_TYPE":"PAYLOAD","REF_FRAME":"TEME","MEAN_MOTION_DDOT":"0.0000000000000","ECCENTRICITY":"0.00022940","TLE_LINE2":"2 48127  53.0543 170.2788 0002294  49.5660 310.5529 15.06390228 66984","MEAN_MOTION":"15.06390228","PERIOD":"95.593","EPOCH":"2022-06-15T17:03:06.463008","BSTAR":"-0.00003028800000","APOAPSIS":"548.832","FILE":"3496999","COUNTRY_CODE":"US","SEMIMAJOR_AXIS":"6925.379","CENTER_NAME":"EARTH","OBJECT_NAME":"STARLINK-2468","CLASSIFICATION_TYPE":"U","LAUNCH_DATE":"2021-04-07","TIME_SYSTEM":"UTC","TLE_LINE1":"1 48127U 21027AM  22166.71049147 -.00000733  00000-0 -30288-4 0  9994","ELEMENT_SET_NO":"999","DECAY_DATE":null,"SITE":"AFETR","RCS_SIZE":"LARGE","REV_AT_EPOCH":"6698","MEAN_MOTION_DOT":"-0.00000733","INCLINATION":"53.0543","RA_OF_ASC_NODE":"170.2788"},{"MEAN_MOTION":"15.06405307","COUNTRY_CODE":"US","FILE":"3497002","APOAPSIS":"548.271","EPOCH":"2022-06-16T02:08:27.837312","PERIOD":"95.592","BSTAR":"-0.00003382400000","OBJECT_ID":"2021-027AN","PERIAPSIS":"546.124","GP_ID":"206288455","REF_FRAME":"TEME","OBJECT_TYPE":"PAYLOAD","EPHEMERIS_TYPE":"0","NORAD_CAT_ID":"48128","MEAN_ANOMALY":"294.3924","ARG_OF_PERICENTER":"65.7227","MEAN_ELEMENT_THEORY":"SGP4","TLE_LINE2":"2 48128  53.0554  98.6595 0001550  65.7227 294.3924 15.06405307 68018","MEAN_MOTION_DDOT":"0.0000000000000","ECCENTRICITY":"0.00015500","RCS_SIZE":"LARGE","SITE":"AFETR","INCLINATION":"53.0554","RA_OF_ASC_NODE":"98.6595","REV_AT_EPOCH":"6801","MEAN_MOTION_DOT":"-0.00000785","OBJECT_NAME":"STARLINK-2469","CLASSIFICATION_TYPE":"U","SEMIMAJOR_AXIS":"6925.332","CENTER_NAME":"EARTH","DECAY_DATE":null,"ELEMENT_SET_NO":"999","LAUNCH_DATE":"2021-04-07","TIME_SYSTEM":"UTC","TLE_LINE1":"1 48128U 21027AN  22167.08921108 -.00000785  00000-0 -33824-4 0  9998"},{"PERIAPSIS":"545.968","OBJECT_ID":"2021-027AP","GP_ID":"206287211","REF_FRAME":"TEME","OBJECT_TYPE":"PAYLOAD","EPHEMERIS_TYPE":"0","NORAD_CAT_ID":"48129","MEAN_ANOMALY":"302.5080","ARG_OF_PERICENTER":"57.6081","MEAN_ELEMENT_THEORY":"SGP4","TLE_LINE2":"2 48129  53.0527 168.8204 0001777  57.6081 302.5080 15.06404922 67033","MEAN_MOTION_DDOT":"0.0000000000000","ECCENTRICITY":"0.00017770","MEAN_MOTION":"15.06404922","COUNTRY_CODE":"US","FILE":"3497002","APOAPSIS":"548.429","EPOCH":"2022-06-16T00:50:10.629600","PERIOD":"95.592","BSTAR":"0.00006495000000","OBJECT_NAME":"STARLINK-2471","CLASSIFICATION_TYPE":"U","SEMIMAJOR_AXIS":"6925.333","CENTER_NAME":"EARTH","DECAY_DATE":null,"ELEMENT_SET_NO":"999","TIME_SYSTEM":"UTC","LAUNCH_DATE":"2021-04-07","TLE_LINE1":"1 48129U 21027AP  22167.03484525  .00000686  00000-0  64950-4 0  9993","RCS_SIZE":"LARGE","SITE":"AFETR","INCLINATION":"53.0527","RA_OF_ASC_NODE":"168.8204","REV_AT_EPOCH":"6703","MEAN_MOTION_DOT":"0.00000686"},{"ELEMENT_SET_NO":"999","DECAY_DATE":null,"LAUNCH_DATE":"2021-04-07","TIME_SYSTEM":"UTC","TLE_LINE1":"1 48130U 21027AQ  22167.02424207 -.00001865  00000-0 -10643-3 0  9996","OBJECT_NAME":"STARLINK-2472","CLASSIFICATION_TYPE":"U","SEMIMAJOR_AXIS":"6925.417","CENTER_NAME":"EARTH","INCLINATION":"53.0550","RA_OF_ASC_NODE":"173.8660","MEAN_MOTION_DOT":"-0.00001865","REV_AT_EPOCH":"6696","RCS_SIZE":"LARGE","SITE":"AFETR","TLE_LINE2":"2 48130  53.0550 173.8660 0001385  59.3467 300.7658 15.06377738 66961","MEAN_MOTION_DDOT":"0.0000000000000","ECCENTRICITY":"0.00013850","GP_ID":"206287960","OBJECT_ID":"2021-027AQ","PERIAPSIS":"546.323","OBJECT_TYPE":"PAYLOAD","REF_FRAME":"TEME","NORAD_CAT_ID":"48130","EPHEMERIS_TYPE":"0","MEAN_ELEMENT_THEORY":"SGP4","MEAN_ANOMALY":"300.7658","ARG_OF_PERICENTER":"59.3467","APOAPSIS":"548.241","FILE":"3497002","COUNTRY_CODE":"US","PERIOD":"95.594","EPOCH":"2022-06-16T00:34:54.514848","BSTAR":"-0.00010643000000","MEAN_MOTION":"15.06377738"},{"TLE_LINE1":"1 48131U 21027AR  22166.97772433 -.00000323  00000-0 -27845-5 0  9999","LAUNCH_DATE":"2021-04-07","TIME_SYSTEM":"UTC","DECAY_DATE":null,"ELEMENT_SET_NO":"999","CENTER_NAME":"EARTH","SEMIMAJOR_AXIS":"6925.343","CLASSIFICATION_TYPE":"U","OBJECT_NAME":"STARLINK-2473","REV_AT_EPOCH":"6730","MEAN_MOTION_DOT":"-0.00000323","RA_OF_ASC_NODE":"149.0636","INCLINATION":"53.0531","SITE":"AFETR","RCS_SIZE":"LARGE","ECCENTRICITY":"0.00016950","MEAN_MOTION_DDOT":"0.0000000000000","TLE_LINE2":"2 48131  53.0531 149.0636 0001695  58.6189 301.4965 15.06401890 67301","MEAN_ANOMALY":"301.4965","ARG_OF_PERICENTER":"58.6189","MEAN_ELEMENT_THEORY":"SGP4","EPHEMERIS_TYPE":"0","NORAD_CAT_ID":"48131","REF_FRAME":"TEME","OBJECT_TYPE":"PAYLOAD","PERIAPSIS":"546.034","OBJECT_ID":"2021-027AR","GP_ID":"206288208","BSTAR":"-0.00000278450000","EPOCH":"2022-06-15T23:27:55.382112","PERIOD":"95.592","COUNTRY_CODE":"US","FILE":"3497002","APOAPSIS":"548.382","MEAN_MOTION":"15.06401890"},{"CLASSIFICATION_TYPE":"U","OBJECT_NAME":"STARLINK-2474","CENTER_NAME":"EARTH","SEMIMAJOR_AXIS":"6925.325","ELEMENT_SET_NO":"999","DECAY_DATE":null,"TLE_LINE1":"1 48132U 21027AS  22167.02378666  .00002330  00000-0  17524-3 0  9996","TIME_SYSTEM":"UTC","LAUNCH_DATE":"2021-04-07","RCS_SIZE":"LARGE","SITE":"AFETR","RA_OF_ASC_NODE":"168.8757","INCLINATION":"53.0543","MEAN_MOTION_DOT":"0.00002330","REV_AT_EPOCH":"6702","OBJECT_TYPE":"PAYLOAD","REF_FRAME":"TEME","GP_ID":"206288956","OBJECT_ID":"2021-027AS","PERIAPSIS":"546.017","MEAN_ANOMALY":"296.6920","ARG_OF_PERICENTER":"63.4242","MEAN_ELEMENT_THEORY":"SGP4","NORAD_CAT_ID":"48132","EPHEMERIS_TYPE":"0","TLE_LINE2":"2 48132  53.0543 168.8757 0001694  63.4242 296.6920 15.06407549 67023","ECCENTRICITY":"0.00016940","MEAN_MOTION_DDOT":"0.0000000000000","MEAN_MOTION":"15.06407549","FILE":"3497002","APOAPSIS":"548.364","COUNTRY_CODE":"US","BSTAR":"0.00017524000000","PERIOD":"95.592","EPOCH":"2022-06-16T00:34:15.167424"},{"RA_OF_ASC_NODE":"169.7851","INCLINATION":"53.0536","REV_AT_EPOCH":"6700","MEAN_MOTION_DOT":"0.00000052","RCS_SIZE":"LARGE","SITE":"AFETR","DECAY_DATE":null,"ELEMENT_SET_NO":"999","TLE_LINE1":"1 48133U 21027AT  22166.82106573  .00000052  00000-0  22410-4 0  9990","TIME_SYSTEM":"UTC","LAUNCH_DATE":"2021-04-07","CLASSIFICATION_TYPE":"U","OBJECT_NAME":"STARLINK-2475","CENTER_NAME":"EARTH","SEMIMAJOR_AXIS":"6925.351","COUNTRY_CODE":"US","FILE":"3496999","APOAPSIS":"548.480","BSTAR":"0.00002241000000","EPOCH":"2022-06-15T19:42:20.079072","PERIOD":"95.592","MEAN_MOTION":"15.06399366","TLE_LINE2":"2 48133  53.0536 169.7851 0001826  66.7901 293.3280 15.06399366 67004","ECCENTRICITY":"0.00018260","MEAN_MOTION_DDOT":"0.0000000000000","REF_FRAME":"TEME","OBJECT_TYPE":"PAYLOAD","PERIAPSIS":"545.951","OBJECT_ID":"2021-027AT","GP_ID":"206237957","MEAN_ANOMALY":"293.3280","ARG_OF_PERICENTER":"66.7901","MEAN_ELEMENT_THEORY":"SGP4","EPHEMERIS_TYPE":"0","NORAD_CAT_ID":"48133"},{"DECAY_DATE":null,"ELEMENT_SET_NO":"999","TLE_LINE1":"1 48134U 21027AU  22166.73997696 -.00000696  00000-0 -27828-4 0  9999","LAUNCH_DATE":"2021-04-07","TIME_SYSTEM":"UTC","CLASSIFICATION_TYPE":"U","OBJECT_NAME":"STARLINK-2476","CENTER_NAME":"EARTH","SEMIMAJOR_AXIS":"6925.370","RA_OF_ASC_NODE":"170.1450","INCLINATION":"53.0543","MEAN_MOTION_DOT":"-0.00000696","REV_AT_EPOCH":"6698","RCS_SIZE":"LARGE","SITE":"AFETR","TLE_LINE2":"2 48134  53.0543 170.1450 0001571  60.9222 299.1924 15.06393068 66981","ECCENTRICITY":"0.00015710","MEAN_MOTION_DDOT":"0.0000000000000","REF_FRAME":"TEME","OBJECT_TYPE":"PAYLOAD","PERIAPSIS":"546.147","OBJECT_ID":"2021-027AU","GP_ID":"206236705","MEAN_ANOMALY":"299.1924","ARG_OF_PERICENTER":"60.9222","MEAN_ELEMENT_THEORY":"SGP4","EPHEMERIS_TYPE":"0","NORAD_CAT_ID":"48134","COUNTRY_CODE":"US","FILE":"3496999","APOAPSIS":"548.323","BSTAR":"-0.00002782800000","EPOCH":"2022-06-15T17:45:34.009344","PERIOD":"95.593","MEAN_MOTION":"15.06393068"},{"CENTER_NAME":"EARTH","SEMIMAJOR_AXIS":"6930.083","CLASSIFICATION_TYPE":"U","OBJECT_NAME":"STARLINK-2478","TLE_LINE1":"1 48135U 21027AV  22166.74080184  .00102389  00000-0  70812-2 0  9995","TIME_SYSTEM":"UTC","LAUNCH_DATE":"2021-04-07","ELEMENT_SET_NO":"999","DECAY_DATE":null,"SITE":"AFETR","RCS_SIZE":"LARGE","REV_AT_EPOCH":"6691","MEAN_MOTION_DOT":"0.00102389","RA_OF_ASC_NODE":"175.2930","INCLINATION":"53.0538","ARG_OF_PERICENTER":"59.0683","MEAN_ANOMALY":"301.0400","MEAN_ELEMENT_THEORY":"SGP4","NORAD_CAT_ID":"48135","EPHEMERIS_TYPE":"0","OBJECT_TYPE":"PAYLOAD","REF_FRAME":"TEME","GP_ID":"206236955","OBJECT_ID":"2021-027AV","PERIAPSIS":"551.281","ECCENTRICITY":"0.00009620","MEAN_MOTION_DDOT":"0.0000000000000","TLE_LINE2":"2 48135  53.0538 175.2930 0000962  59.0683 301.0400 15.04856576 66919","MEAN_MOTION":"15.04856576","BSTAR":"0.00708120000000","PERIOD":"95.690","EPOCH":"2022-06-15T17:46:45.278976","APOAPSIS":"552.615","FILE":"3496999","COUNTRY_CODE":"US"}];
